{
  "type": "FeatureCollection",
  "features": [
    {
      "type": "Feature",
      "properties": {
        "norad_id": 38169,
        "name": "FENGYUN 1C DEB",
        "group": "fengyun-1c-debris",
        "lat": -66.38638594944655,
        "lon": -28.1594549971625,
        "alt_km": 686.2937465723626,
        "timestamp": "2025-12-03T08:58:46.291886+00:00",
        "meta_object_name": "FENGYUN 1C DEB",
        "meta_object_id": "1999-025ERS",
        "meta_epoch": "2025-11-22T03:51:43.920000",
        "meta_mean_motion": 14.70462609,
        "meta_eccentricity": 0.00311315,
        "meta_inclination": 98.9783,
        "meta_ra_of_asc_node": 298.2991,
        "meta_arg_of_pericenter": 127.7379,
        "meta_mean_anomaly": 232.6652,
        "meta_ephemeris_type": 0,
        "meta_classification_type": "U",
        "meta_norad_cat_id": 38169,
        "meta_element_set_no": 999,
        "meta_rev_at_epoch": 60966,
        "meta_bstar": 0.0026738914,
        "meta_mean_motion_dot": 0.00016302,
        "meta_mean_motion_ddot": 0,
        "tle_line1": "1 38169U 99025ERS 25326.16092500  .00016302  00000+0  26739-2 0  9993",
        "tle_line2": "2 38169  98.9783 298.2991 0031131 127.7379 232.6652 14.70462609609660"
      },
      "geometry": {
        "type": "Point",
        "coordinates": [
          -28.1594549971625,
          -66.38638594944655
        ]
      }
    },
    {
      "type": "Feature",
      "properties": {
        "norad_id": 38173,
        "name": "FENGYUN 1C DEB",
        "group": "fengyun-1c-debris",
        "lat": -47.36617121136504,
        "lon": -112.9322633153401,
        "alt_km": 889.6263618406274,
        "timestamp": "2025-12-03T08:58:46.291895+00:00",
        "meta_object_name": "FENGYUN 1C DEB",
        "meta_object_id": "1999-025ERW",
        "meta_epoch": "2025-11-24T11:18:51.497568",
        "meta_mean_motion": 14.37024249,
        "meta_eccentricity": 0.01622994,
        "meta_inclination": 98.9991,
        "meta_ra_of_asc_node": 227.8463,
        "meta_arg_of_pericenter": 166.3393,
        "meta_mean_anomaly": 194.2263,
        "meta_ephemeris_type": 0,
        "meta_classification_type": "U",
        "meta_norad_cat_id": 38173,
        "meta_element_set_no": 999,
        "meta_rev_at_epoch": 60381,
        "meta_bstar": 0.00095115,
        "meta_mean_motion_dot": 3.231e-05,
        "meta_mean_motion_ddot": 0,
        "tle_line1": "1 38173U 99025ERW 25328.47142937  .00003231  00000+0  95115-3 0  9996",
        "tle_line2": "2 38173  98.9991 227.8463 0162299 166.3393 194.2263 14.37024249603812"
      },
      "geometry": {
        "type": "Point",
        "coordinates": [
          -112.9322633153401,
          -47.36617121136504
        ]
      }
    },
    {
      "type": "Feature",
      "properties": {
        "norad_id": 38491,
        "name": "FENGYUN 1C DEB",
        "group": "fengyun-1c-debris",
        "lat": 77.0456695232233,
        "lon": -59.30512733784705,
        "alt_km": 753.4184684737538,
        "timestamp": "2025-12-03T08:58:46.291906+00:00",
        "meta_object_name": "FENGYUN 1C DEB",
        "meta_object_id": "1999-025ESA",
        "meta_epoch": "2025-11-07T18:37:17.530176",
        "meta_mean_motion": 13.96213514,
        "meta_eccentricity": 0.02268827,
        "meta_inclination": 98.9363,
        "meta_ra_of_asc_node": 318.985,
        "meta_arg_of_pericenter": 122.5823,
        "meta_mean_anomaly": 239.7468,
        "meta_ephemeris_type": 0,
        "meta_classification_type": "U",
        "meta_norad_cat_id": 38491,
        "meta_element_set_no": 999,
        "meta_rev_at_epoch": 65972,
        "meta_bstar": 0.00032180703,
        "meta_mean_motion_dot": 5.09e-06,
        "meta_mean_motion_ddot": 0,
        "tle_line1": "1 38491U 99025ESA 25311.77589734  .00000509  00000+0  32181-3 0  9993",
        "tle_line2": "2 38491  98.9363 318.9850 0226882 122.5823 239.7468 13.96213514659723"
      },
      "geometry": {
        "type": "Point",
        "coordinates": [
          -59.30512733784705,
          77.0456695232233
        ]
      }
    },
    {
      "type": "Feature",
      "properties": {
        "norad_id": 38492,
        "name": "FENGYUN 1C DEB",
        "group": "fengyun-1c-debris",
        "lat": 81.38174312302877,
        "lon": -38.61962694442238,
        "alt_km": 891.1881578697248,
        "timestamp": "2025-12-03T08:58:46.291916+00:00",
        "meta_object_name": "FENGYUN 1C DEB",
        "meta_object_id": "1999-025ESB",
        "meta_epoch": "2025-11-07T22:24:32.618304",
        "meta_mean_motion": 13.93045648,
        "meta_eccentricity": 0.02334575,
        "meta_inclination": 98.6097,
        "meta_ra_of_asc_node": 26.0841,
        "meta_arg_of_pericenter": 245.4391,
        "meta_mean_anomaly": 112.2279,
        "meta_ephemeris_type": 0,
        "meta_classification_type": "U",
        "meta_norad_cat_id": 38492,
        "meta_element_set_no": 999,
        "meta_rev_at_epoch": 55519,
        "meta_bstar": 0.0058484062,
        "meta_mean_motion_dot": 9.486e-05,
        "meta_mean_motion_ddot": 0,
        "tle_line1": "1 38492U 99025ESB 25311.93371086  .00009486  00000+0  58484-2 0  9997",
        "tle_line2": "2 38492  98.6097  26.0841 0233457 245.4391 112.2279 13.93045648555192"
      },
      "geometry": {
        "type": "Point",
        "coordinates": [
          -38.61962694442238,
          81.38174312302877
        ]
      }
    },
    {
      "type": "Feature",
      "properties": {
        "norad_id": 38493,
        "name": "FENGYUN 1C DEB",
        "group": "fengyun-1c-debris",
        "lat": 29.67712859155721,
        "lon": 122.61398398780342,
        "alt_km": 1172.1868763002085,
        "timestamp": "2025-12-03T08:58:46.291925+00:00",
        "meta_object_name": "FENGYUN 1C DEB",
        "meta_object_id": "1999-025ESC",
        "meta_epoch": "2025-12-02T14:34:29.911296",
        "meta_mean_motion": 13.62300089,
        "meta_eccentricity": 0.04265045,
        "meta_inclination": 99.0775,
        "meta_ra_of_asc_node": 296.6706,
        "meta_arg_of_pericenter": 271.5685,
        "meta_mean_anomaly": 83.6659,
        "meta_ephemeris_type": 0,
        "meta_classification_type": "U",
        "meta_norad_cat_id": 38493,
        "meta_element_set_no": 999,
        "meta_rev_at_epoch": 56360,
        "meta_bstar": 0.00057752132,
        "meta_mean_motion_dot": 7.81e-06,
        "meta_mean_motion_ddot": 0,
        "tle_line1": "1 38493U 99025ESC 25336.60729064  .00000781  00000+0  57752-3 0  9999",
        "tle_line2": "2 38493  99.0775 296.6706 0426504 271.5685  83.6659 13.62300089563606"
      },
      "geometry": {
        "type": "Point",
        "coordinates": [
          122.61398398780342,
          29.67712859155721
        ]
      }
    },
    {
      "type": "Feature",
      "properties": {
        "norad_id": 38494,
        "name": "FENGYUN 1C DEB",
        "group": "fengyun-1c-debris",
        "lat": -18.783673724465256,
        "lon": -68.82843305586157,
        "alt_km": 728.6587433565746,
        "timestamp": "2025-12-03T08:58:46.291936+00:00",
        "meta_object_name": "FENGYUN 1C DEB",
        "meta_object_id": "1999-025ESD",
        "meta_epoch": "2025-11-30T02:08:48.245856",
        "meta_mean_motion": 13.99599294,
        "meta_eccentricity": 0.0387254,
        "meta_inclination": 98.433,
        "meta_ra_of_asc_node": 285.2437,
        "meta_arg_of_pericenter": 44.6936,
        "meta_mean_anomaly": 318.476,
        "meta_ephemeris_type": 0,
        "meta_classification_type": "U",
        "meta_norad_cat_id": 38494,
        "meta_element_set_no": 999,
        "meta_rev_at_epoch": 6977,
        "meta_bstar": 0.0054391,
        "meta_mean_motion_dot": 0.00015208,
        "meta_mean_motion_ddot": 0,
        "tle_line1": "1 38494U 99025ESD 25334.08944729  .00015208  00000+0  54391-2 0  9992",
        "tle_line2": "2 38494  98.4330 285.2437 0387254  44.6936 318.4760 13.99599294 69777"
      },
      "geometry": {
        "type": "Point",
        "coordinates": [
          -68.82843305586157,
          -18.783673724465256
        ]
      }
    },
    {
      "type": "Feature",
      "properties": {
        "norad_id": 38495,
        "name": "FENGYUN 1C DEB",
        "group": "fengyun-1c-debris",
        "lat": 63.35157231054577,
        "lon": -24.617939440380265,
        "alt_km": 1018.1577323734455,
        "timestamp": "2025-12-03T08:58:46.291946+00:00",
        "meta_object_name": "FENGYUN 1C DEB",
        "meta_object_id": "1999-025ESE",
        "meta_epoch": "2025-12-02T06:20:41.771904",
        "meta_mean_motion": 13.69106573,
        "meta_eccentricity": 0.0252581,
        "meta_inclination": 99.1709,
        "meta_ra_of_asc_node": 353.1036,
        "meta_arg_of_pericenter": 165.9119,
        "meta_mean_anomaly": 194.9245,
        "meta_ephemeris_type": 0,
        "meta_classification_type": "U",
        "meta_norad_cat_id": 38495,
        "meta_element_set_no": 999,
        "meta_rev_at_epoch": 60969,
        "meta_bstar": 0.0025866,
        "meta_mean_motion_dot": 2.759e-05,
        "meta_mean_motion_ddot": 0,
        "tle_line1": "1 38495U 99025ESE 25336.26437236  .00002759  00000+0  25866-2 0  9997",
        "tle_line2": "2 38495  99.1709 353.1036 0252581 165.9119 194.9245 13.69106573609697"
      },
      "geometry": {
        "type": "Point",
        "coordinates": [
          -24.617939440380265,
          63.35157231054577
        ]
      }
    }
  ]
}